satname,norad_id,inclination_deg,eccentricity,mean_motion_rev_per_day,perigee_km,apogee_km,l1,l2
STARLINK-1413,45689,53.1564,0.0003218,15.32456154,466.2836228310907,470.69010995150074,1 45689U 20035AJ  26127.98663650  .00039936  00000+0  12616-2 0  9990,2 45689  53.1564 133.9168 0003218  58.2405 301.8910 15.32456154327973
STARLINK-1417,45693,53.0501,0.000589,15.15376454,515.7730084610221,523.898820554311,1 45693U 20035AN  26127.74495398  .00021558  00000+0  11413-2 0  9996,2 45693  53.0501 146.0376 0005890  42.3062 317.8384 15.15376454327848
STARLINK-1420,45695,53.0463,0.0007045,15.65025462,368.4092394498093,377.92182471751585,1 45695U 20035AQ  26127.88726865  .00042700  00000+0  42918-3 0  9996,2 45695  53.0463  94.2071 0007045  40.0522 320.1011 15.65025462328595
STARLINK-1422,45696,53.1563,0.0003626,15.3255078,465.7225540222653,470.6875212679661,1 45696U 20035AR  26127.92545376  .00025080  00000+0  79576-3 0  9990,2 45696  53.1563 134.1652 0003626  50.8882 309.2442 15.32550780328042
STARLINK-1351,45697,53.0444,0.0006915,15.62774009,374.97526635285703,384.3212833880025,1 45697U 20035AS  26127.93892282  .00109887  00000+0  11877-2 0  9990,2 45697  53.0444  94.0079 0006915  44.0512 316.1051 15.62774009328606
STARLINK-1400,45700,53.0442,0.0005907,15.60395251,382.5186274511407,390.51038674162464,1 45700U 20035AV  26127.97765117  .00071055  00000+0  84836-3 0  9996,2 45700  53.0442  95.9335 0005907  10.9525 349.1615 15.60395251328574
STARLINK-1403,45701,53.1557,0.0002964,15.31526829,469.2260974439914,473.2864177670999,1 45701U 20035AW  26127.72182657  .00040005  00000+0  13009-2 0  9996,2 45701  53.1557 122.4342 0002964  61.8036 298.3264 15.31526829328186
STARLINK-1407,45703,53.0303,0.0002276,15.69531017,358.7053255536157,361.77263429967843,1 45703U 20035AY  26127.88467276  .00049788  00000+0  41633-3 0  9990,2 45703  53.0303  24.9947 0002276 345.7753  14.3199 15.69531017329561
STARLINK-1411,45706,53.0354,0.0003298,15.77625734,334.95500723431905,339.38442354379004,1 45706U 20035BB  26128.00002315  .00037987  00000+0  22585-3 0  9990,2 45706  53.0354  48.4792 0003298  98.9935 325.6307 15.77625734  5900
STARLINK-1423,45710,53.0437,0.0007655,15.65964934,365.2989935637852,375.6311032999347,1 45710U 20035BF  26127.93636356  .00042306  00000+0  40958-3 0  9999,2 45710  53.0437  93.6226 0007655  13.2513 346.8701 15.65964934328595
STARLINK-1433,45711,53.0439,0.0007546,15.65555231,366.549011598534,376.7357786616649,1 45711U 20035BG  26127.97734362  .00041719  00000+0  41068-3 0  9990,2 45711  53.0439  91.9265 0007546  20.3799 339.7515 15.65555231328620
STARLINK-1434,45712,53.0495,0.0003731,15.31998216,467.2961886671201,472.4061574418538,1 45712U 20035BH  26127.90204875  .00045996  00000+0  14708-2 0  9996,2 45712  53.0495 104.6164 0003731  17.3142 342.7984 15.31998216328455
STARLINK-1465,45731,53.0465,0.0002149,15.59569362,387.44826211449345,390.3567356911217,1 45731U 20038B   26127.84900580  .00088537  00000+0  10876-2 0  9999,2 45731  53.0465 297.2503 0002149 178.8841 181.2176 15.59569362325586
STARLINK-1471,45735,53.0442,0.0002565,15.52090239,408.88283976001276,412.36547423355296,1 45735U 20038F   26127.94672552  .00020405  00000+0  33898-3 0  9999,2 45735  53.0442 217.4243 0002565  51.0787 309.0450 15.52090239326720
STARLINK-1480,45741,53.0503,0.0003098,15.60890229,382.9890812639178,387.1795731982693,1 45741U 20038M   26127.45298465  .00068028  00000+0  79793-3 0  9996,2 45741  53.0503 292.9180 0003098 282.2561  77.8105 15.60890229325624
STARLINK-1500,45744,53.0369,0.000289,15.37808667,450.616601790015,454.56476239026324,1 45744U 20038Q   26126.44421929  .00022846  00000+0  61445-3 0  9993,2 45744  53.0369 281.1890 0002890  90.0595 270.0738 15.37808667325691
STARLINK-1504,45746,53.02,0.0002654,15.57172286,394.0475890619855,397.64321892202315,1 45746U 20038S   26127.93702968  .00027069  00000+0  37134-3 0  9995,2 45746  53.0200 215.4686 0002654  21.2233 338.8887 15.57172286326730
STARLINK-1506,45747,53.0765,0.0004542,15.2790232,478.96821124391045,485.2000361126593,1 45747U 20038T   26127.82722708  .00035347  00000+0  12870-2 0  9995,2 45747  53.0765 288.4695 0004542  74.4645 285.6855 15.27902320325721
STARLINK-1464,45751,53.0473,0.0001084,15.51615415,411.27302838932155,412.7451320595137,1 45751U 20038X   26127.85180286  .00076230  00000+0  12581-2 0  9997,2 45751  53.0473 281.7637 0001084 269.1723  90.9161 15.51615415325812
STARLINK-1477,45754,53.0512,0.0001821,15.17434133,512.3436356332213,514.8536057462761,1 45754U 20038AA  26127.90428347  .00031306  00000+0  15547-2 0  9999,2 45754  53.0512 303.1783 0001821 155.5268 204.5813 15.17434133325513
STARLINK-1478,45755,53.0464,0.0001602,15.65159353,371.6990044281674,373.8619983956205,1 45755U 20038AB  26127.56412323  .00038652  00000+0  38754-3 0  9996,2 45755  53.0464 270.9940 0001602 324.7511  35.3397 15.65159353325927
STARLINK-1493,45759,53.0486,0.0004764,15.60306462,383.5483300662454,389.9939345347011,1 45759U 20038AF  26127.89124751  .00094747  00000+0  11300-2 0  9995,2 45759  53.0486 278.1674 0004764 262.2567  97.7904 15.60306462325856
STARLINK-1494,45760,53.0419,0.0005923,15.90472298,297.0042442561744,304.91630288644774,1 45760U 20038AG  26128.00002315  .00167498  21351-4  54300-3 0  9991,2 45760  53.0419 213.4537 0005923 334.3639 168.9811 15.90472298  5973
STARLINK-1502,45764,53.0475,0.0005756,15.56390895,394.2120713953891,402.01288979745095,1 45764U 20038AL  26125.75257890  .00086290  00000+0  11941-2 0  9990,2 45764  53.0475 291.5256 0005756 220.2612 139.7973 15.56390895325493
STARLINK-1470,45772,53.0453,0.0001954,15.33099975,465.2324629173563,467.9073743811641,1 45772U 20038AU  26127.63870127  .00040622  00000+0  12573-2 0  9993,2 45772  53.0453 259.6255 0001954 270.9126  89.1651 15.33099975326100
STARLINK-1482,45773,53.1571,0.000244,15.3528381,458.40910650854494,461.74615524841374,1 45773U 20038AV  26127.82771327  .00044876  00000+0  12945-2 0  9995,2 45773  53.1571 275.3117 0002440 259.9702 100.1026 15.35283810325916
STARLINK-1496,45780,53.0461,0.0005588,15.58457549,388.33732758352744,395.90376741861564,1 45780U 20038BC  26127.83647253  .00091287  00000+0  11683-2 0  9990,2 45780  53.0461 252.5885 0005588 337.0750  23.0011 15.58457549326204
STARLINK-1513,45786,53.1594,0.0001289,15.31695378,469.87095118111847,471.6365952224505,1 45786U 20038BJ  26127.77808933 -.00001036  00000+0 -21627-4 0  9999,2 45786  53.1594 276.4486 0001289  93.0098 267.1051 15.31695378325892
STARLINK-1522,46027,53.0623,0.0001723,15.11919665,529.1557355690647,531.5363988340223,1 46027U 20055A   26127.63695960  .00017196  00000+0  10071-2 0  9997,2 46027  53.0623 220.2418 0001723 313.7822  46.3027 15.11919665317791
STARLINK-1523,46028,53.1587,0.0001012,15.3018658,474.56157612869174,475.94870269770945,1 46028U 20055B   26127.50149739 -.00000748  00000+0 -13143-4 0  9994,2 46028  53.1587 213.5278 0001012  68.2053 291.9055 15.30186580317905
STARLINK-1526,46029,53.1601,0.0001438,15.30188159,474.264907627281,476.23594185063666,1 46029U 20055C   26127.95238032 -.00001178  00000+0 -27664-4 0  9990,2 46029  53.1601 211.4441 0001438  86.4396 273.6770 15.30188159317967
STARLINK-1555,46032,53.1593,0.0001725,15.30187699,474.06958866640616,476.4340078017958,1 46032U 20055F   26127.93657997 -.00001630  00000+0 -42937-4 0  9990,2 46032  53.1593 211.4988 0001725  82.0517 278.0680 15.30187699317960
STARLINK-1556,46033,53.1601,0.0001186,15.30189863,474.4325256960601,476.05814798635765,1 46033U 20055G   26127.65846483  .00000549  00000+0  30677-4 0  9994,2 46033  53.1601 212.8078 0001186  96.2436 263.8700 15.30189863317896
STARLINK-1557,46034,53.1617,9.92e-05,15.3019295,474.55626491591556,475.9159741428293,1 46034U 20055H   26127.92288771 -.00000553  00000+0 -65509-5 0  9995,2 46034  53.1617 211.5750 0000992  76.9881 283.1231 15.30192950317930
STARLINK-1558,46035,53.1581,0.0001307,15.30192438,474.3419122147179,476.1333843477787,1 46035U 20055J   26127.93025545 -.00000288  00000+0  24041-5 0  9995,2 46035  53.1581 211.5412 0001307  98.1971 261.9178 15.30192438317961
STARLINK-1560,46036,53.1591,0.0001364,15.30188922,474.3133447960672,476.18294826404053,1 46036U 20055K   26127.72061498  .00000168  00000+0  17802-4 0  9992,2 46036  53.1591 212.5239 0001364  92.4830 267.6327 15.30188922317934
STARLINK-1567,46038,53.0717,0.0005241,16.21378371,212.35622220614277,219.2679996642255,1 46038U 20055M   26128.01212017  .02530998  11865-4  11416-2 0  9992,2 46038  53.0717 192.7821 0005241 345.1363  14.9521 16.21378371318219
STARLINK-1569,46039,53.1626,0.0001683,15.30188804,474.0950740816015,476.40192364051745,1 46039U 20055N   26127.47622262 -.00001992  00000+0 -55155-4 0  9990,2 46039  53.1626 213.6432 0001683  95.2228 264.8965 15.30188804317889
STARLINK-1582,46043,53.1579,0.000123,15.316987,469.9014581136753,471.58628280780977,1 46043U 20055S   26127.58960050 -.00005646  00000+0 -17030-3 0  9996,2 46043  53.1579 212.8571 0001230  93.0757 267.0385 15.31698700317903
STARLINK-1591,46045,53.1597,0.0001234,15.30192655,474.39129400145885,476.08270670474667,1 46045U 20055U   26127.96607486 -.00000277  00000+0  27584-5 0  9992,2 46045  53.1597 211.3719 0001234  81.9053 278.2087 15.30192655317946
STARLINK-1524,46047,53.1586,0.0001188,15.31694188,469.94367190471894,471.5709691952825,1 46047U 20055W   26127.49366703 -.00010460  00000+0 -32584-3 0  9996,2 46047  53.1586 200.5989 0001188  77.7856 282.3279 15.31694188318070
STARLINK-1527,46048,53.1593,0.0001313,15.31702065,469.8345828337815,471.6330963162545,1 46048U 20055X   26127.48902163 -.00002009  00000+0 -52980-4 0  9995,2 46048  53.1593 200.6084 0001313 111.5449 248.5692 15.31702065318045
STARLINK-1540,46051,53.1578,0.000125,15.30192271,474.3814750239344,476.09481881066404,1 46051U 20055AA  26127.92442233  .00000083  00000+0  14934-4 0  9990,2 46051  53.1578 198.7045 0001250  82.8057 277.3086 15.30192271318151
